---
layout: post
title: "Flight Simulator Logbook"
author: "Marcelo"
comments: true
tags: flight-simulator
excerpt_separator: <!--more-->
---
Nesse post vou inserir um log dos meus voos e minhas observações sobre cada deles.
<!--more-->

<a href="#001"><b>001-010</b></a> 011-020 021-030 031-040 041-050 051-060 061-070 071-080 081-090 091-100
101-110 111-120 121-130 131-140 141-150 151-160 161-170 171-180 181-190 191-200
201-210 211-220 221-230 231-240 241-250 251-260 261-270 271-280 281-290 291-300
301-310 311-320 321-330 331-340 341-350 <a href="#351"><b>351-360</b></a> 361-370 371-380 381-390 391-400

<!--- De 351 a 360 --->
<section id ="351"></section>
## 0357 - Birmingham/BHX - Sofia/SOF
{% highlight markdown %}
FLIGHT INFORMATION
Flight Number  :  VWT462
Flight Co.     :  World Travel
Aircraft Model :  Airbus A320-NEO
Departure      :  EGBB/BHX Birmingham, United Kingdom (+1 UTC)
Arrival        :  LBSF/SOF Sofia, Bulgaria (+3 UTC)
{% endhighlight %}
{% highlight markdown %}
FLIGHT SCHEDULE AND TIMES
Flight Date    :  May 14, 2021
Departure Time :  13:15
Arr. Time      :  17:59
Flight Time    :  03:44
Log Time       :  913:53
{% endhighlight %}
{% highlight markdown %}
FLIGHT WEIGHTS
PAX            : 169 people
Cargo          : 700 lbs
Fuel Loaded    : 18.700 lbs
Takeoff Weight : 142.200 lbs
{% endhighlight %}
{% highlight markdown %}
FLIGHT ROUTE
Flight Level   : FL STEPS EGBB/0330/
Flt Distance   : 1.520 NM
Route          : EGBB/15 UNGA1M UNGAP P155 SIVDA P137 REDFA L620 SUVOX Z718 OSN
                 L980 DLE L986 MAG Z20 SUBIX L980 ADVAB L981 DIBED M977 VAMES N164
                 BUKAN N127 LUKOV Q8 RESLA NISV4D LBSF/9
{% endhighlight %}
{% highlight markdown %}
WEATHER
Dep. Weather   : EGBB 150250Z 15004KT 5000 RA BKN015 08/07 Q1002
Arr. Weather   : LBSF 150230Z VRB02KT RA OVC078 06/05 Q1013 NOSIG
{% endhighlight %}

## 0356 - Barcelona/BCN - Birmingham/BHX
{% highlight markdown %}
FLIGHT INFORMATION
Flight Number  : VY1670
Flight Co.     : Vueling Airlines
Aircraft Model : Airbus A320-NEO
Departure      : LEBL/BCN Barcelona, Spain (+2 UTC)
Arrival        : EGBB/BHX Birmingham, United Kingdom (+1 UTC)
{% endhighlight %}
{% highlight markdown %}
FLIGHT SCHEDULE AND TIMES
Flight Date    : May 12, 2021
Departure Time : 13:52
Arr. Time      : 14:56
Flight Time    : 02:04      
Log Time       : 910:09
{% endhighlight %}
{% highlight markdown %}
FLIGHT WEIGHTS
PAX            : 169 people
Cargo          : 700 lbs
Fuel Loaded    : 11.100 lbs
Takeoff Weight : 139.900 lbs
{% endhighlight %}
{% highlight markdown %}
FLIGHT ROUTE
Flight Level   : FL STEPS LEBL/0340/
Flt Distance   : 779 NM
Route          : LEBL/25R OKAB1C OKABI UN861 DIKRO UM185 OCK Q3 HEMEL T420 BUZAD L10
                 HON EGBB/33
{% endhighlight %}
{% highlight markdown %}
WEATHER
Dep. Weather   : LEBL 130230Z 31007KT CAVOK 17/06 Q1013 NOSIG
Arr. Weather   : EGBB 130250Z 04004KT RA OVC010 09/07 Q1007
{% endhighlight %}

## 0355 - Amsterdan/AMS - Barcelona/BCN
{% highlight markdown %}
FLIGHT INFORMATION
Flight Number  : KL1681
Flight Co.     : KLM Royal Dutch Airlines
Aircraft Model : Airbus A320-NEO
Departure      : EHAM/AMS Amsterdan, Netherlands (+2 UTC)
Arrival        : LEBL/BCN Barcelona, Spain (+2 UTC)
{% endhighlight %}
{% highlight markdown %}
FLIGHT SCHEDULE AND TIMES
Flight Date    : May 11, 2021
Departure Time : 07:44
Arr. Time      : 09:50
Flight Time    : 02:06      
Log Time       : 906:46
{% endhighlight %}
{% highlight markdown %}
FLIGHT WEIGHTS
PAX            : 161 people
Cargo          : 900 lbs
Fuel Loaded    : 10.700 lbs
Takeoff Weight : 146.100 lbs
{% endhighlight %}
{% highlight markdown %}
FLIGHT ROUTE
Flight Level   : FL STEPS EHAM/0340/
Flt Distance   : 724 NM
Route          : EHAM KUDA1R WOODY N872 MEDIL UN872 KOVIN UM728 RESMI UN857 DIRMO
                 UZ365 NARAK UN859 PUMAL PUMA1Y LEBL
{% endhighlight %}
{% highlight markdown %}
WEATHER
Dep. Weather   : EHAM 120255Z 23003KT FEW020 08/06 Q1010 NOSIG
Arr. Weather   : LEBL 120300Z 33008KT 9999 FEW025 11/08 Q1017 NOSIG
{% endhighlight %}

<!--- De 001 a 010 --->
<section id ="001"></section>
## 0004 - New York/JFK - Chicago/ORD
#### Flight Information
{% highlight markdown %}
Flight Number  : AA2270
Flight Co.     : American Airlines
Aircraft Model : Boeing 737-800
Departure      : KJFK/JFK New York, United States (-5 UTC)
Arrival        : KORD/ORD Chicago, United States (-6 UTC)
{% endhighlight %}
#### Flight Schedule
{% highlight markdown %}
Flight Date    : January 8, 2017
Departure Time : 17:10
Arr. Time      : 19:09
Flight Time    : 2:59
Log Time       : 11:10
{% endhighlight %}
#### Flight Weights
{% highlight markdown %}
PAX            : 158 people
Cargo          : 500 lbs
Fuel Loaded    : 22.100 lbs
Takeoff Weight : 150.100 lbs
{% endhighlight %}
#### Flight Route
{% highlight markdown %}
Flight Level   : FL STEPS KJFK/0360/
Flt Distance   : 866 NM
Route          : KCLT/36C BARMY4 TYI DCT ORF J121 SIE CAMRN4 KJFK/31L
{% endhighlight %}
#### Flight Weather
{% highlight markdown %}
Dep. Weather   : KJFK 082051Z 28013KT 10SM SCT047 BKN060 M04/M18 A3035
Arr. Weather   : KORD 090051Z 18008KT 10SM SCT120 BKN150 OVC200 M10/M17 A3052
{% endhighlight %}

## 0003 - Charlotte/CLT - New York/JFK
#### Flight Information
{% highlight markdown %}
Flight Number  : AA1972
Flight Co.     : American Airlines
Aircraft Model : Airbus A319-100
Departure      : KCLT/CLT Charlotte, United States (-5 UTC)
Arrival        : KJFK/JFK New York, United States (-5 UTC)
{% endhighlight %}
#### Flight Schedule
{% highlight markdown %}
Flight Date    : January 1, 2017
Departure Time : 16:06
Arr. Time      : 19:01
Flight Time    : 2:55
Log Time       : 8:11
{% endhighlight %}
#### Flight Weights
{% highlight markdown %}
PAX            : 175 people
Cargo          : 100 lbs
Fuel Loaded    : 15.300 lbs
Takeoff Weight : 151.100 lbs
{% endhighlight %}
#### Flight Route
{% highlight markdown %}
Flight Level   : FL STEPS KCLT/0350
Flt Distance   : 474 NM
Route          : KCLT/36C BARMY4 TYI DCT ORF J121 SIE CAMRN4 KJFK/31L
{% endhighlight %}
#### Flight Weather
{% highlight markdown %}
Dep. Weather   : KCLT 012052Z 09005KT 2SM -RA BR OVC004 09/08 A3018
Arr. Weather   : KJFK 012351Z 00000KT 10SM CLR 06/M09 A3036
{% endhighlight %}

## 0002 - Saint Louis/STL - Charlotte/CLT
#### Flight Information
{% highlight markdown %}
Flight Number  : AA1823
Flight Co.     : American Airlines
Aircraft Model : Airbus A319-100
Departure      : KSTL/STL Saint Louis, United States (-6 UTC)
Arrival        : KCLT/CLT Charlotte, United States (-5 UTC)
{% endhighlight %}
#### Flight Schedule
{% highlight markdown %}
Flight Date    : January 1, 2017
Departure Time : 07:10
Arr. Time      : 10:33
Flight Time    : 02:23      
Log Time       : 05:16
{% endhighlight %}
#### Flight Weights
{% highlight markdown %}
PAX            : 135 people
Cargo          : 300 lbs
Fuel Loaded    : 14.000 lbs
Takeoff Weight : 145.100 lbs
{% endhighlight %}
#### Flight Route
{% highlight markdown %}
Flight Level   : FL STEPS KSTL/0370
Flt Distance   : 490 NM
Route          : KSTL/30L JHART6 DOBLR DCT CAROL J134 FLM DCT TAFTT PARQR3 KCLT/23
{% endhighlight %}
#### Flight Weather
{% highlight markdown %}
Dep. Weather   : KSTL 011451Z 29006KT 10SM FEW250 00/M04 A3009
Arr. Weather   : KCLT 011451Z 24006KT 2SM BR SCT002 OVC014 06/05 A3021
{% endhighlight %}

## 0001 - Phoenix/PHX - Saint Louis/STL
#### Flight Information
{% highlight markdown %}
Flight Number  : AA489
Flight Co.     : American Airlines
Aircraft Model : Airbus A319-100
Departure      : KPHX/PHX Phoenix, United States (-7 UTC)
Arrival        : KSTL/STL Saint Louis, United States (-6 UTC)
{% endhighlight %}
#### Flight Schedule
{% highlight markdown %}
Flight Date    : December 31, 2016
Departure Time : 09:05
Arr. Time      : 12:58
Flight Time    : 02:53      
Log Time       : 02:53
{% endhighlight %}
#### Flight Weights
{% highlight markdown %}
PAX            : 161 people
Cargo          : 400 lbs
Fuel Loaded    : 21.900 lbs
Takeoff Weight : 150.100 lbs
{% endhighlight %}
#### Flight Route
{% highlight markdown %}
Flight Level   : FL STEPS PHX/0330/
Flt Distance   : 1.022 NM
Route          : KPHX/26 FORPE1 ABQ DCT FTI DCT KA36W DCT KK42A DCT BUM KAYLA3
                 KSTL/06
{% endhighlight %}
#### Flight Weather
{% highlight markdown %}
Dep. Weather   : KPHX 311551Z 21003KT 8SM SCT006 BKN008 OVC012 13/12 A2992
Arr. Weather   : KSTL 311551Z 21018KT 10SM BKN065 OVC250 09/M09 A2975
{% endhighlight %}
