---
layout: post
title: "Flight Simulator Logbook"
author: "Marcelo"
comments: true
tags: flight-simulator
excerpt_separator: <!--more-->
---
<section id ="top"></section>
Nesse post vou inserir um log dos meus voos e minhas observações sobre cada deles.
<!--more-->
<a href="#010"><b>001-010</b></a> 011-020 021-030 031-040 041-050 051-060 061-070 071-080 081-090 091-100
101-110 111-120 121-130 131-140 141-150 151-160 161-170 171-180 181-190 191-200
201-210 211-220 221-230 231-240 241-250 251-260 261-270 271-280 281-290 291-300
301-310 311-320 321-330 331-340 341-350 <a href="#360"><b>351-360</b></a> 361-370 371-380 381-390 391-400

<!--- Até 360 --->
<section id ="360"></section>
<!--- 0358 --->
## <a href="#top"><b>0358 - Sofia/SOF - Salzburg/SZG</b></a>
{% highlight markdown %}
FLIGHT INFORMATION
Flight Number  :  OS1455
Flight Co.     :  Austrian Airlines
Aircraft Model :  Airbus A320-NEO
Departure      :  LBSF/SOF Sofia, Bulgaria (+3 UTC)
Arrival        :  LOWS/SZG Salzburg, Austria (+2 UTC)

FLIGHT SCHEDULE
Flight Date    :  May 16, 2021
Departure Time :  13:47
Arr. Time      :  14:34
Flight Time    :  01:47
Log Time       :  915:40

FLIGHT WEIGHTS
PAX            : 169 people
Cargo          : 800 lbs
Fuel Loaded    : 10.500 lbs
Takeoff Weight : 134.200 lbs

FLIGHT ROUTE
Flight Level   : FL STEPS LBSF/0320/
Flt Distance   : 625 NM
Route          : LBSF/27 GODE2T ERDOM N133 NEKUL P975 MIVSA NUBR2R LOWS/15

FLIGHT WEATHER
Dep. Weather   : LBSF 162200Z 14003KT 080V230 9999 0500W BCFG SCT004 08/08 Q1011
Arr. Weather   : LOWS 162150Z AUTO 16006KT 130V200 9999 -SHRA FEW050 SCT060 BKN110
                 10/09 Q1006
{% endhighlight %}

<!--- 0357 --->
## <a href="#top"><b>0357 - Birmingham/BHX - Sofia/SOF</b></a>
{% highlight markdown %}
FLIGHT INFORMATION
Flight Number  :  VWT462
Flight Co.     :  World Travel
Aircraft Model :  Airbus A320-NEO
Departure      :  EGBB/BHX Birmingham, United Kingdom (+1 UTC)
Arrival        :  LBSF/SOF Sofia, Bulgaria (+3 UTC)

FLIGHT SCHEDULE
Flight Date    :  May 14, 2021
Departure Time :  13:15
Arr. Time      :  17:59
Flight Time    :  03:44
Log Time       :  913:53

FLIGHT WEIGHTS
PAX            : 169 people
Cargo          : 700 lbs
Fuel Loaded    : 18.700 lbs
Takeoff Weight : 142.200 lbs

FLIGHT ROUTE
Flight Level   : FL STEPS EGBB/0330/
Flt Distance   : 1.520 NM
Route          : EGBB/15 UNGA1M UNGAP P155 SIVDA P137 REDFA L620 SUVOX Z718 OSN
                 L980 DLE L986 MAG Z20 SUBIX L980 ADVAB L981 DIBED M977 VAMES N164
                 BUKAN N127 LUKOV Q8 RESLA NISV4D LBSF/9

FLIGHT WEATHER
Dep. Weather   : EGBB 150250Z 15004KT 5000 RA BKN015 08/07 Q1002
Arr. Weather   : LBSF 150230Z VRB02KT RA OVC078 06/05 Q1013 NOSIG
{% endhighlight %}

<!--- 0356 --->
## <a href="#top"><b>0356 - Barcelona/BCN - Birmingham/BHX</b></a>
{% highlight markdown %}
FLIGHT INFORMATION
Flight Number  : VY1670
Flight Co.     : Vueling Airlines
Aircraft Model : Airbus A320-NEO
Departure      : LEBL/BCN Barcelona, Spain (+2 UTC)
Arrival        : EGBB/BHX Birmingham, United Kingdom (+1 UTC)

FLIGHT SCHEDULE
Flight Date    : May 12, 2021
Departure Time : 13:52
Arr. Time      : 14:56
Flight Time    : 02:04      
Log Time       : 910:09

FLIGHT WEIGHTS
PAX            : 169 people
Cargo          : 700 lbs
Fuel Loaded    : 11.100 lbs
Takeoff Weight : 139.900 lbs

FLIGHT ROUTE
Flight Level   : FL STEPS LEBL/0340/
Flt Distance   : 779 NM
Route          : LEBL/25R OKAB1C OKABI UN861 DIKRO UM185 OCK Q3 HEMEL T420 BUZAD L10
                 HON EGBB/33

FLIGHT WEATHER
Dep. Weather   : LEBL 130230Z 31007KT CAVOK 17/06 Q1013 NOSIG
Arr. Weather   : EGBB 130250Z 04004KT RA OVC010 09/07 Q1007
{% endhighlight %}

<!--- 0355 --->
## <a href="#top"><b>0355 - Amsterdan/AMS - Barcelona/BCN</b></a>
{% highlight markdown %}
FLIGHT INFORMATION
Flight Number  : KL1681
Flight Co.     : KLM Royal Dutch Airlines
Aircraft Model : Airbus A320-NEO
Departure      : EHAM/AMS Amsterdan, Netherlands (+2 UTC)
Arrival        : LEBL/BCN Barcelona, Spain (+2 UTC)

FLIGHT SCHEDULE
Flight Date    : May 11, 2021
Departure Time : 07:44
Arr. Time      : 09:50
Flight Time    : 02:06      
Log Time       : 906:46

FLIGHT WEIGHTS
PAX            : 161 people
Cargo          : 900 lbs
Fuel Loaded    : 10.700 lbs
Takeoff Weight : 146.100 lbs

FLIGHT ROUTE
Flight Level   : FL STEPS EHAM/0340/
Flt Distance   : 724 NM
Route          : EHAM KUDA1R WOODY N872 MEDIL UN872 KOVIN UM728 RESMI UN857 DIRMO
                 UZ365 NARAK UN859 PUMAL PUMA1Y LEBL

FLIGHT WEATHER
Dep. Weather   : EHAM 120255Z 23003KT FEW020 08/06 Q1010 NOSIG
Arr. Weather   : LEBL 120300Z 33008KT 9999 FEW025 11/08 Q1017 NOSIG
{% endhighlight %}

<!--- Até 010 --->
<section id ="010"></section>
<!--- 0009 --->
## <a href="#top"><b>0009 - Madrid/MAD - Zurich/ZRH</b></a>
{% highlight markdown %}
FLIGHT INFORMATION
Flight Number  : IB3476
Flight Co.     : Iberia Líneas Aéreas de España
Aircraft Model : Airbus A320-200
Departure      : LEMD/MAD Madrid, Spain (+1 UTC)
Arrival        : LSZH/ZRH Zurich, Switzerland (+1 UTC)

FLIGHT SCHEDULE
Flight Date    : January 17, 2017
Departure Time : 19:53
Arr. Time      : 22:32
Flight Time    : 2:39
Log Time       : 27:37

FLIGHT WEIGHTS
PAX            : 177 people
Cargo          : 0 lbs
Fuel Loaded    : 21.300 lbs
Takeoff Weight : 157.900 lbs

ROUTE INFORMATION
Flight Level   : FL STEPS LEMD/0280/CEGAM/0230/SSN/0240/URUNA/0180/RLP/0190
Flt Distance   : 789 NM
Route          : LEMD/36L RBO1N RBO UN867 DGO UL176 CEGAM B190 SSN R10 LMG G21 RLP
                 G4 LUL G42 BLM DCT ZH677 DCT GIPOL DCT ZH713 DCT ZH714 DCT OSNEM
                 DCT LSZH/34

FLIGHT WEATHER
Dep. Weather   : LEMD 170800Z 36013KT CAVOK 08/02 Q1018
Arr. Weather   : LSZH 172120Z 05013KT 020V080 9999 FEW023 BKN027 M04/M09 Q1028
{% endhighlight %}

<!--- 0008 --->
## <a href="#top"><b>0008 - Paris/CDG - Madrid/MAD</b></a>
{% highlight markdown %}
FLIGHT INFORMATION
Flight Number  : AF1600
Flight Co.     : Air France
Aircraft Model : Airbus A320-200
Departure      : LFPG/CDG Paris, France (+1 UTC)
Arrival        : LEMD/MAD Madrid, Spain (+1 UTC)

FLIGHT SCHEDULE
Flight Date    : January 16, 2017
Departure Time : 14:45
Arr. Time      : 16:50
Flight Time    : 2:00
Log Time       : 24:58

FLIGHT WEIGHTS
PAX            : 163 people
Cargo          : 200 lbs
Fuel Loaded    : 16.600 lbs
Takeoff Weight : 150.100 lbs

ROUTE INFORMATION
Flight Level   : FL STEPS LFPG/0330/
Flt Distance   : 629 NM
Route          : LFPG/09R AGOPA2G AGOPA UL167 ARTAX UN857 BAN BAN1J LEMD/32L

FLIGHT WEATHER
Dep. Weather   : LFPG 161230Z 04004KT 360V060 7000 BKN009 BKN063 02/00 Q1026 NOSIG
Arr. Weather   : LEMD 161530Z 01016KT 340V040 9999 FEW070 11/01 Q1022 NOSIG
{% endhighlight %}

<!--- 0007 --->
## <a href="#top"><b>0007 - London/LHR - Paris/CDG</b></a>
{% highlight markdown %}
FLIGHT INFORMATION
Flight Number  : BA304
Flight Co.     : British Airways
Aircraft Model : Airbus A320-200
Departure      : EGLL/LHR London, United Kingdom (0 UTC)
Arrival        : LFPG/CDG Paris, France (+1 UTC)

FLIGHT SCHEDULE
Flight Date    : January 15, 2017
Departure Time : 14:15
Arr. Time      : 16:35
Flight Time    : 1:20
Log Time       : 22:53

FLIGHT WEIGHTS
PAX            : 165 people
Cargo          : 200 lbs
Fuel Loaded    : 11.600 lbs
Takeoff Weight : 146.600 lbs

ROUTE INFORMATION
Flight Level   : FL STEPS EGLL/0250/
Flt Distance   : 208 NM
Route          : EGLL/27R MID4F MID UL612 BOGNA DCT HARDY UM605 BIBAX BIBAX8E
                 LFPG/09R

FLIGHT WEATHER
Dep. Weather   : EGLL 151350Z 30007KT 5000 -RA FEW005 BKN011 08/08 Q1020
Arr. Weather   : LFPG 151530Z 23005KT 6000 -SNRA SCT005 BKN007 BKN017 02/01 Q1022
{% endhighlight %}

<!--- 0006 --->
## <a href="#top"><b>0006 - Boston/BOS - London/LHR</b></a>
{% highlight markdown %}
FLIGHT INFORMATION
Flight Number  : BA214
Flight Co.     : British Airways
Aircraft Model : Boeing 747-400
Departure      : KBOS/BOS Boston, United States (-5 UTC)
Arrival        : EGLL/LHR London, United Kingdom (0 UTC)

FLIGHT SCHEDULE
Flight Date    : January 14, 2017
Departure Time : 22:45
Arr. Time      : 11:38
Flight Time    : 7:53
Log Time       : 21:33

FLIGHT WEIGHTS
PAX            : 365 people
Cargo          : 2.900 lbs
Fuel Loaded    : 152.400 lbs
Takeoff Weight : 639.800 lbs

ROUTE INFORMATION
Flight Level   : FL STEPS KBOS/0350/JOOPY/0370
Flt Distance   : 2.813 NM
Route          : KBOS/27 LBSTA6 LBSTA DCT ALLEX N263A JOOPY DCT 49N050W 50N040W
                 51N030W 51N020W DCT DINIM DCT ELSOX DCT LESLU N514 DIDEL N513
                 ELRIP N17 OTMET OTMET1H EGLL/09L

FLIGHT WEATHER
Dep. Weather   : KBOS 150254Z 23012KT 10SM OVC090 M01/M07 A3033
Arr. Weather   : EGLL 151120Z 27009KT 9000 -RA FEW008 BKN012 06/06 Q1021
{% endhighlight %}

<!--- 0005 --->
## <a href="#top"><b>0005 - Chicago/ORD - Boston/BOS</b></a>
{% highlight markdown %}
FLIGHT INFORMATION
Flight Number  : AA2222
Flight Co.     : American Airlines
Aircraft Model : Boeing 737-800
Departure      : KORD/ORD Chicago, United States (-6 UTC)
Arrival        : KBOS/BOS Boston, United States (-5 UTC)

FLIGHT SCHEDULE
Flight Date    : January 9, 2017
Departure Time : 12:15
Arr. Time      : 15:45
Flight Time    : 2:30
Log Time       : 13:40

FLIGHT WEIGHTS
PAX            : 161 people
Cargo          : 400 lbs
Fuel Loaded    : 18.800 lbs
Takeoff Weight : 147.400 lbs

ROUTE INFORMATION
Flight Level   : FL STEPS KORD/0350/
Flt Distance   : 689 NM
Route          : KORD/28R DCT EBAKE DCT WISMO DCT POSTS DCT PADDE DCT SVM DCT DKK
                 DCT PONCT JFUND2 KBOS/33L

FLIGHT WEATHER
Dep. Weather   : KORD 091751Z 23008KT 10SM SCT140 OVC250 M03/M09 A3025
Arr. Weather   : KBOS 091954Z 22009KT 10SM FEW050 OVC200 M07/M17 A3066
{% endhighlight %}

<!--- 0004 --->
## <a href="#top"><b>0004 - New York/JFK - Chicago/ORD</b></a>
{% highlight markdown %}
FLIGHT INFORMATION
Flight Number  : AA2270
Flight Co.     : American Airlines
Aircraft Model : Boeing 737-800
Departure      : KJFK/JFK New York, United States (-5 UTC)
Arrival        : KORD/ORD Chicago, United States (-6 UTC)

FLIGHT SCHEDULE
Flight Date    : January 8, 2017
Departure Time : 17:10
Arr. Time      : 19:09
Flight Time    : 2:59
Log Time       : 11:10

FLIGHT WEIGHTS
PAX            : 158 people
Cargo          : 500 lbs
Fuel Loaded    : 22.100 lbs
Takeoff Weight : 150.100 lbs

ROUTE INFORMATION
Flight Level   : FL STEPS KJFK/0360/
Flt Distance   : 866 NM
Route          : KCLT/36C BARMY4 TYI DCT ORF J121 SIE CAMRN4 KJFK/31L

FLIGHT WEATHER
Dep. Weather   : KJFK 082051Z 28013KT 10SM SCT047 BKN060 M04/M18 A3035
Arr. Weather   : KORD 090051Z 18008KT 10SM SCT120 BKN150 OVC200 M10/M17 A3052
{% endhighlight %}

<!--- 0003 --->
## <a href="#top"><b>0003 - Charlotte/CLT - New York/JFK</b></a>
{% highlight markdown %}
FLIGHT INFORMATION
Flight Number  : AA1972
Flight Co.     : American Airlines
Aircraft Model : Airbus A319-100
Departure      : KCLT/CLT Charlotte, United States (-5 UTC)
Arrival        : KJFK/JFK New York, United States (-5 UTC)

FLIGHT SCHEDULE
Flight Date    : January 1, 2017
Departure Time : 16:06
Arr. Time      : 19:01
Flight Time    : 2:55
Log Time       : 8:11

FLIGHT WEIGHTS
PAX            : 175 people
Cargo          : 100 lbs
Fuel Loaded    : 15.300 lbs
Takeoff Weight : 151.100 lbs

ROUTE INFORMATION
Flight Level   : FL STEPS KCLT/0350
Flt Distance   : 474 NM
Route          : KCLT/36C BARMY4 TYI DCT ORF J121 SIE CAMRN4 KJFK/31L

FLIGHT WEATHER
Dep. Weather   : KCLT 012052Z 09005KT 2SM -RA BR OVC004 09/08 A3018
Arr. Weather   : KJFK 012351Z 00000KT 10SM CLR 06/M09 A3036
{% endhighlight %}

<!--- 0002 --->
## <a href="#top"><b>0002 - Saint Louis/STL - Charlotte/CLT</b></a>
{% highlight markdown %}
FLIGHT INFORMATION
Flight Number  : AA1823
Flight Co.     : American Airlines
Aircraft Model : Airbus A319-100
Departure      : KSTL/STL Saint Louis, United States (-6 UTC)
Arrival        : KCLT/CLT Charlotte, United States (-5 UTC)

FLIGHT SCHEDULE
Flight Date    : January 1, 2017
Departure Time : 07:10
Arr. Time      : 10:33
Flight Time    : 02:23      
Log Time       : 05:16

FLIGHT WEIGHTS
PAX            : 135 people
Cargo          : 300 lbs
Fuel Loaded    : 14.000 lbs
Takeoff Weight : 145.100 lbs

ROUTE INFORMATION
Flight Level   : FL STEPS KSTL/0370
Flt Distance   : 490 NM
Route          : KSTL/30L JHART6 DOBLR DCT CAROL J134 FLM DCT TAFTT PARQR3 KCLT/23

FLIGHT WEATHER
Dep. Weather   : KSTL 011451Z 29006KT 10SM FEW250 00/M04 A3009
Arr. Weather   : KCLT 011451Z 24006KT 2SM BR SCT002 OVC014 06/05 A3021
{% endhighlight %}

<!--- 0001 --->
## <a href="#top"><b>0001 - Phoenix/PHX - Saint Louis/STL</b></a>
{% highlight markdown %}
FLIGHT INFORMATION
Flight Number  : AA489
Flight Co.     : American Airlines
Aircraft Model : Airbus A319-100
Departure      : KPHX/PHX Phoenix, United States (-7 UTC)
Arrival        : KSTL/STL Saint Louis, United States (-6 UTC)

FLIGHT SCHEDULE
Flight Date    : December 31, 2016
Departure Time : 09:05
Arr. Time      : 12:58
Flight Time    : 02:53      
Log Time       : 02:53

FLIGHT WEIGHTS
PAX            : 161 people
Cargo          : 400 lbs
Fuel Loaded    : 21.900 lbs
Takeoff Weight : 150.100 lbs

ROUTE INFORMATION
Flight Level   : FL STEPS PHX/0330/
Flt Distance   : 1.022 NM
Route          : KPHX/26 FORPE1 ABQ DCT FTI DCT KA36W DCT KK42A DCT BUM KAYLA3
                 KSTL/06

FLIGHT WEATHER
Dep. Weather   : KPHX 311551Z 21003KT 8SM SCT006 BKN008 OVC012 13/12 A2992
Arr. Weather   : KSTL 311551Z 21018KT 10SM BKN065 OVC250 09/M09 A2975
{% endhighlight %}
