---
layout: post
title: "Flight Simulator Logbook"
author: "Marcelo"
comments: true
tags: flight-simulator
excerpt_separator: <!--more-->
---
Nesse post vou inserir um log dos meus voos e minhas observações sobre cada deles.
<!--more-->

<a href="#1"><b>001-010</b></a> 011-020 021-030 031-040 041-050 051-060 061-070 071-080 081-090 091-100
101-110 111-120 121-130 131-140 141-150 151-160 161-170 171-180 181-190 191-200
201-210 211-220 221-230 231-240 241-250 251-260 261-270 271-280 281-290 291-300
301-310 311-320 321-330 331-340 341-350 <a href="#351"><b>351-360</b></a> 361-370 371-380 381-390 391-400

<section id ="#361"></section>
## 0355 - Amsterdan/AMS - Barcelona/BCN
{% highlight markdown %}
FLIGHT INFORMATION
Flight Number  :  KL1681
Flight Co.     :  KLM Royal Dutch Airlines
Aircraft Model :  Airbus A320-NEO
Departure      :  EHAM/AMS Amsterdan, Netherlands (+2 UTC)
Arrival        :  LEBL/BCN Barcelona, Spain (+2 UTC)
{% endhighlight %}
{% highlight markdown %}
FLIGHT SCHEDULE AND TIMES
Flight Date    :  May 11, 2021
Departure Time :   07:44
Arr. Time      :   09:50
Flight Time    :   02:06      
Log Time       :  906:46
{% endhighlight %}
{% highlight markdown %}
FLIGHT WEIGHTS
PAX            :     161 people
Cargo          :     900 lbs
Fuel Loaded    :  10.700 lbs
Takeoff Weight : 146.100 lbs
{% endhighlight %}
{% highlight markdown %}
FLIGHT ROUTE
Flight Level   : FL STEPS EHAM/0340/
Flt Distance   : 724 NM
Route          : EHAM KUDA1R WOODY N872 MEDIL UN872 KOVIN UM728 RESMI UN857 DIRMO
                 UZ365 NARAK UN859 PUMAL PUMA1Y LEBL
{% endhighlight %}
{% highlight markdown %}
WEATHER
Dep. Weather   : EHAM 120255Z 23003KT FEW020 08/06 Q1010 NOSIG
Arr. Weather   : LEBL 120300Z 33008KT 9999 FEW025 11/08 Q1017 NOSIG
{% endhighlight %}

<section id ="#1"></section>
## 0001 - Phoenix/PHX - Saint Louis/STL
{% highlight markdown %}
FLIGHT INFORMATION
Flight Number  :  AA489
Flight Co.     :  American Airlines
Aircraft Model :  Airbus A319-100
Departure      :  KPHX/PHX Phoenix, United States (-7 UTC)
Arrival        :  KSTL/STL Saint Louis, United States (-6 UTC)
{% endhighlight %}
{% highlight markdown %}
FLIGHT SCHEDULE AND TIMES
Flight Date    :  December 31, 2016
Departure Time :  09:05
Arr. Time      :  12:58
Flight Time    :   2:53      
Log Time       :   2:53
{% endhighlight %}
{% highlight markdown %}
FLIGHT WEIGHTS
PAX            :     161 people
Cargo          :     400 lbs
Fuel Loaded    :  21.900 lbs
Takeoff Weight : 150.100 lbs
{% endhighlight %}
{% highlight markdown %}
FLIGHT PERFORMANCE, ROUTE AND WEATHER
Flight Level   : FL STEPS PHX/0330/
Flt Distance   : 1.022 NM
Route          : KPHX/26 FORPE1 ABQ DCT FTI DCT KA36W DCT KK42A DCT BUM KAYLA3
                 KSTL/06
Dep. Weather   : KPHX 311551Z 21003KT 8SM SCT006 BKN008 OVC012 13/12 A2992
Arr. Weather   : KSTL 311551Z 21018KT 10SM BKN065 OVC250 09/M09 A2975
{% endhighlight %}
