---
layout: post
title: "Zurich to Amsterdam"
author: "Marcelo"
comments: true
tags: flight-simulator
excerpt_separator: <!--more-->
---
Bem vindos a bordo do voo KL1952 da KLM Royal Dutch Airlines. Voaremos de Zurich (ZRH) para Amsterdam (AMS) a bordo do Airbus A320-200. Nosso voo, tem um duração prevista de 1 horas e 40 minutos.
<!--more-->

No aeroporto de Zurich (Zurich Airport), o céu está nublado e temperatura de -5<sup>o</sup>C. No aeroporto de Amsterdam (Schiphol Airport), o céu está nublado e geada, a temperatura é de -5<sup>o</sup>C.

## Flight General Information
{% highlight markdown %}
Flight ID      : 010
Flight Number  : KL1952
Flight Co.     : KLM Royal Dutch Airlines
Aircraft Model : Boeing 737-800
Departure      : LSZH/ZRH Zurich, Switzerland (+1 UTC)
Arrival        : EHAM/AMS Amsterdam, Netherlands (+1 UTC)
{% endhighlight %}

## Flight Schedule
{% highlight markdown %}
Dep. Scheduled : 07:00      Dep. Time : 07:00
Arr. Scheduled : 08:40      Arr. Time : 08:40

Flight Time    :  1:40
Acc. Flt. Time : 29:17
{% endhighlight %}

## Flight Weight
{% highlight markdown %}
PAX            :     176 people
Cargo          :       0 lbs
Fuel Loaded    :  15.200 lbs
Takeoff Weight : 146.800 lbs
{% endhighlight %}

## Flight Route
{% highlight markdown %}
Flight Level   : FL STEPS LSZH/0180/LASUN/0360/BUB/0180
Flt Distance   : 512 NM
Route          : LSZH/34 VEBIT2H VEBIT T51 LASUN UT10 TORPA UM624 LUL UT60 GIVOR UN853
                 IBERA DCT BUB Y28 HELEN HELEN1A EHAM/18R
{% endhighlight %}

## Weather Information
{% highlight markdown %}
LSZH/ZRH  ZURICH
   LSZH 180550Z 04010KT 010V070 9999 BKN022 M05/M09 Q1028

EHAM/AMS SCHIPHOL
   EHAM 180725Z 16003KT 120V190 0600 FZFG -SG SCT000 BKN001 M05/M06 Q1040
{% endhighlight %}

<figure align="center">
   <img src="/assets/010a.webp">
</figure>
<figure align="center">
   <img src="/assets/010b.webp" alt="flight simulator, fsx, flight, boeing, 737-800, zurich, amsterdan, netherlands, switzerland, amsterdam">
</figure>
