---
layout: post
title: "New York - Chicago"
author: "Marcelo"
comments: true
tags: flight-simulator
excerpt_separator: <!--more-->
---
Bem vindos a bordo do voo AA2270 da American Airlines. Voaremos de Charlotte (CLT) para New York (JFK) a bordo do Airbus A319-100. Nosso voo, tem um duração prevista de 3 horas. Apertem os cintos.
<!--more-->

No aeroporto de New York (Kennedy International Airport), o céu está nublado e a temperatura é de -4<sup>o</sup>C. No aeroporto de Chicago (O'Hare International Airport), o céu está encoberto e a temperatura é de -10<sup>o</sup>C.

## Flight General Information
{% highlight markdown %}
Flight ID      : 004
Flight Number  : AA2270
Flight Co.     : American Airlines
Aircraft Model : Boeing 737-800
Departure      : KJFK/JFK New York, United States (-5 UTC)
Arrival        : KORD/ORD Chicago, United States (-6 UTC)
{% endhighlight %}

## Flight Schedule
{% highlight markdown %}
Dep. Scheduled : 17:00      Dep. Time : 17:10
Arr. Scheduled : 19:00      Arr. Time : 19:09

Flight Time    :  2:59
Acc. Flt. Time : 11:10
{% endhighlight %}

## Flight Weight
{% highlight markdown %}
PAX            :     158 people
Cargo          :     500 lbs
Fuel Loaded    :  22.100 lbs
Takeoff Weight : 150.100 lbs
{% endhighlight %}

## Flight Route
{% highlight markdown %}
Flight Level   : FL STEPS KJFK/0360/
Flt Distance   : 866 NM
Route          : KCLT/36C BARMY4 TYI DCT ORF J121 SIE CAMRN4 KJFK/31L
{% endhighlight %}

## Weather Information
{% highlight markdown %}
KJFK/JFK  KENNEDY INTL
   KJFK 082051Z 28013KT 10SM SCT047 BKN060 M04/M18 A3035

KORD/ORD  -O'HARE INTL
   KORD 090051Z 18008KT 10SM SCT120 BKN150 OVC200 M10/M17 A3052
{% endhighlight %}

<figure align="center">
   <img src="/assets/004a.webp">
</figure>
<figure align="center">
   <img src="/assets/004b.webp">
</figure>
