---
layout: post
title: "Flight Simulator #100: Munich - Paris"
author: "Marcelo"
comments: true
tags: flight-simulator
---
Welcome aboard of Air France AF1123 flight. The flight is from Munich (MUN) to Paris (CDG) on board of the <a href="https://imgproc.airliners.net/photos/airliners/7/9/4/6357497.jpg?v=v450e2ae7e59" target="_blank">Airbus A319-100</a>, the approximated flight time will be 1 hours and 30 minutes.

In Munich Airport, the sky is clear with no clouds and the temperature is 29<sup>o</sup>C. In Paris Charles de Gaulle International Airport , the sky is clear with no clouds, the temperature is 32<sup>o</sup>C.

## Flight General Information
{% highlight markdown %}
Flight ID      : 100
Flight Number  : AF1123
Flight Co.     : Air France
Aircraft Model : Airbus A319-100
Departure      : EDDM/MUN Munich, Germany (+1 UTC)
Arrival        : LFPG/CDG Paris, France (+1 UTC)
{% endhighlight %}

## Flight Schedule
{% highlight markdown %}
Dep. Scheduled : 12:15      Dep. Time : 12:15
Arr. Scheduled : 13:45      Arr. Time : 13:45

Flight Time    :   1:30
Acc. Flt. Time : 295:34
{% endhighlight %}

## Flight Weight
{% highlight markdown %}
PAX            :     114 people
Cargo          :     600 lbs
Fuel Loaded    :  15.100 lbs
Takeoff Weight : 134.400 lbs
{% endhighlight %}

## Flight Route
{% highlight markdown %}
Flight Level   : FL STEPS EDDM/0360/TOLVU/0350/RAPOR/0360
Flt Distance   : 444 NM
Route          : EDDM/26R GIVMI1N GIVMI Y101 INBED DCT REKDI DCT LOHRE DCT BOMBI DCT
                 NOSPA UN857 RAPOR UZ157 VEDUS VEDUS8W LFPG/27L
{% endhighlight %}

## Weather Information
{% highlight markdown %}
EDDM/MUC  MUNICH
   EDDM 221050Z 28006KT 240V330 CAVOK 29/12 Q1017 NOSIG

LFPG/CDG  CHARLES-DE-GAULLE
   LFPG 221030Z 30005KT 270V350 CAVOK 32/17 Q1013 NOSIG
{% endhighlight %}

<figure align="center">
   <img src="/assets/100.PNG">
</figure>
