---
layout: post
title: "London - Paris"
author: "Marcelo"
comments: true
tags: flight-simulator
excerpt_separator: <!--more-->
---
Bem vindos a bordo do voo BA304 da British Airways. Voaremos de London (LHR) para Paris (CDG) a bordo do Airbus A320-200. Nosso voo, tem um duração prevista de 1 horas e 20 minutos.
<!--more-->

No aeroporto de London (Heathrow Airport), o céu está encoberto, com chuva fraca e temperatura de 8<sup>o</sup>C. No aeroporto de Paris (Charles de Gaulle Airport), o céu está nublado, com neve fraca e a temperatura é de 2<sup>o</sup>C.


## Flight General Information
{% highlight markdown %}
Flight ID      : 007
Flight Number  : BA304
Flight Co.     : British Airways
Aircraft Model : Airbus A320-200
Departure      : EGLL/LHR London, United Kingdom (0 UTC)
Arrival        : LFPG/CDG Paris, France (+1 UTC)
{% endhighlight %}

## Flight Schedule
{% highlight markdown %}
Dep. Scheduled : 14:00      Dep. Time : 14:15
Arr. Scheduled : 16:20      Arr. Time : 16:35

Flight Time    :  1:20
Acc. Flt. Time : 22:53
{% endhighlight %}

## Flight Weight
{% highlight markdown %}
PAX            :     165 people
Cargo          :     200 lbs
Fuel Loaded    :  11.600 lbs
Takeoff Weight : 146.600 lbs
{% endhighlight %}

## Flight Route
{% highlight markdown %}
Flight Level   : FL STEPS EGLL/0250/
Flt Distance   : 208 NM
Route          : EGLL/27R MID4F MID UL612 BOGNA DCT HARDY UM605 BIBAX BIBAX8E LFPG/09R
{% endhighlight %}

## Weather Information
{% highlight markdown %}
EGLL/LHR  HEATHROW
   EGLL 151350Z 30007KT 5000 -RA FEW005 BKN011 08/08 Q1020

LFPG/CDG  CHARLES-DE-GAULLE
   LFPG 151530Z 23005KT 6000 -SNRA SCT005 BKN007 BKN017 02/01 Q1022
{% endhighlight %}

<figure align="center">
   <img src="/assets/007a.webp">
</figure>
<figure align="center">
   <img src="/assets/007b.webp" alt="flight simulator, fsx, flight, airbus, a320, paris, london, france, british airways, united kingdom">
</figure>
