---
layout: post
title: "Madrid to Zurich"
author: "Marcelo"
comments: true
tags: flight-simulator
excerpt_separator: <!--more-->
---
Bem vindos a bordo do voo IB3476 da Iberia. Voaremos de Madrid (MAD) para Zurich (ZRH) a bordo do Airbus A320-200. Nosso voo, tem um duração prevista de 2 horas e 45 minutos. Nosso embarque já está autorizado.
<!--more-->

No aeroporto de Madrid (Adolfo Soarez Barajas International Airport), o céu está claro, sem nuvens e a temperatura é de 8<sup>o</sup>C. No aeroporto de Zurich (Zurich Airport), o céu está nublado e a temperatura é de -4<sup>o</sup>C.


## Flight General Information
{% highlight markdown %}
Flight ID      : 009
Flight Number  : IB3476
Flight Co.     : Iberia Líneas Aéreas de España
Aircraft Model : Airbus A320-200
Departure      : LEMD/MAD Madrid, Spain (+1 UTC)
Arrival        : LSZH/ZRH Zurich, Switzerland (+1 UTC)
{% endhighlight %}

## Flight Schedule
{% highlight markdown %}
Dep. Scheduled : 19:30      Dep. Time : 19:53
Arr. Scheduled : 22:00      Arr. Time : 22:32

Flight Time    :  2:39
Acc. Flt. Time : 27:37
{% endhighlight %}

## Flight Weight
{% highlight markdown %}
PAX            :     177 people
Cargo          :       0 lbs
Fuel Loaded    :  21.300 lbs
Takeoff Weight : 157.900 lbs
{% endhighlight %}

## Flight Route
{% highlight markdown %}
Flight Level   : FL STEPS LEMD/0280/CEGAM/0230/SSN/0240/URUNA/0180/RLP/0190
Flt Distance   : 789 NM
Route          : LEMD/36L RBO1N RBO UN867 DGO UL176 CEGAM B190 SSN R10 LMG G21 RLP
                 G4 LUL G42 BLM DCT ZH677 DCT GIPOL DCT ZH713 DCT ZH714 DCT OSNEM
                 DCT LSZH/34
{% endhighlight %}

## Weather Information
{% highlight markdown %}
LEMD/MAD  ADOLFO SUAREZ MADRID-BARAJAS
   LEMD 170800Z 36013KT CAVOK 08/02 Q1018

LSZH/ZRH  ZURICH
   LSZH 172120Z 05013KT 020V080 9999 FEW023 BKN027 M04/M09 Q1028
{% endhighlight %}

<figure align="center">
   <img src="/assets/009a.webp">
</figure>

<figure align="center">
   <img src="/assets/009b.webp" alt="flight simulator, fsx, flight, airbus, a320, madrid, espanha, zurich, switzerland, iberia">>
</figure>
