---
layout: post
title: "St. Louis - Charlotte"
author: "Marcelo"
comments: true
tags: flight-simulator
excerpt_separator: <!--more-->
---
Bem vindos a bordo do voo AA1823 da American Airlines. Voaremos de St. Louis (STL) para Charlotte (CLT) a bordo do Airbus A319-100. Nosso voo, tem um duração prevista de 2 horas e 30 minutos. O check in está aberto.
<!--more-->

No aeroporto de St. Louis (Lambert International Airport), o céu está encoberto com temperatura de 13<sup>o</sup>C. No aeroporto de Charlotte (Douglas International Airport), o céu está encoberto com neblina e a temperatura é de 6<sup>o</sup>C.

## Flight General Information
{% highlight markdown %}
Flight ID      : 002
Flight Number  : AA1823
Flight Co.     : American Airlines
Aircraft Model : Airbus A319-100
Departure      : KSTL/STL St. Louis, United States (-6 UTC)
Arrival        : KCLT/CLT Charlotte, United States (-5 UTC)
{% endhighlight %}

## Flight Schedule
{% highlight markdown %}
Dep. Scheduled : 07:00      Dep. Time : 07:10
Arr. Scheduled : 10:30      Arr. Time : 10:33

Flight Time    : 2:23
Acc. Flt. Time : 5:16
{% endhighlight %}

## Flight Weight
{% highlight markdown %}
PAX            :     135 people
Cargo          :     300 lbs
Fuel Loaded    :  14.000 lbs
Takeoff Weight : 137.900 lbs
{% endhighlight %}

## Flight Route
{% highlight markdown %}
Flight Level   : FL370
Flt Distance   : 490 NM
Route          : KSTL/30L JHART6 DOBLR DCT CAROL J134 FLM DCT TAFTT PARQR3 KCLT/23
{% endhighlight %}

## Weather Information
{% highlight markdown %}
KSTL/STL  ST LOUIS LAMBERT INTL
   KSTL 011451Z 08006KT 10SM FEW250 00/M04 A3009

KCLT/CLT  CHARLOTTE/DOUGLAS INTL
   KCLT 011452Z 16006KT 2SM BR SCT002 OVC014 06/05 A3021
{% endhighlight %}

<figure align="center">
   <img src="/assets/002a.webp">
</figure>
<figure align="center">
   <img src="/assets/002b.webp" alt="flight simulator, fsx, flight, airbus, a319, charlotte, st louis, united states, american airlines">
</figure>
