---
layout: post
title: "Cairo - Beirut"
author: "Marcelo"
comments: true
tags: flight-simulator
excerpt_separator: <!--more-->
---
Bem vindos a bordo do voo MS740 da Egypt Air. Voaremos de Cairo (CAI) para Beirut (BEY) a bordo do Airbus A320neo. Nosso voo, tem um duração prevista de 1 hora e 30 minutos.
<!--more-->

No aeroporto de Cairo (Cairo International Airport), o céu está claro e sem nuvens. A temperatura de 27<sup>o</sup>C. No aeroporto de Beirut (Rafic Hariri International Airport), o céu está claro e sem nuvens, a temperatura é de 27<sup>o</sup>C.

## Flight General Information
{% highlight markdown %}
Flight ID      : 143
Flight Number  : MS740
Flight Co.     : Egypt Air
Aircraft Model : Airbus  A320neo
Departure      : HECA/CAI Cairo, Egypt (+2 UTC)
Arrival        : OLBA/BEY Beirut, Lebanon (+1 UTC)
{% endhighlight %}

## Flight Schedule
{% highlight markdown %}
Dep. Scheduled : 22:30      Dep. Time : 22:37
Arr. Scheduled : 00:00      Arr. Time : 00:07

Flight Time    :   1:30
Acc. Flt. Time : 376:51
{% endhighlight %}

## Flight Weight
{% highlight markdown %}
PAX            :     156 people
Cargo          :     900 lbs
Fuel Loaded    :  13.100 lbs
Takeoff Weight : 139.600 lbs
{% endhighlight %}

## Flight Route
{% highlight markdown %}
Flight Level   : FL STEPS HECA/0330/VELOX/0230
Flt Distance   : 292 NM
Route          : HECA/05R DCT LAKTO UW11 VELOX G2 ELIKA ELIKA2N OLBA/03
{% endhighlight %}

## Weather Information
{% highlight markdown %}
HECA/CAI  CAIRO INTL
   HECA 282030Z 03010KT 6000 NSC 27/20 Q1016

OLBA/BEY  RAFIC HARIRI INTL
   OLBA 282200Z 07002KT CAVOK 27/12 Q1015
{% endhighlight %}

<figure align="center">
   <img src="/assets/143a.webp">
</figure>
<figure align="center">
   <img src="/assets/143b.webp" alt="flight simulator, fs2020, msfs2020, flight, aribus, a320neo, cairo, beirut, lebanon, egypt, egypt air">
</figure>
