---
layout: post
title: "Shanghai - Beijing"
author: "Marcelo"
comments: true
tags: flight-simulator
excerpt_separator: <!--more-->
---
Bem vindos a bordo do voo CA1884 da Air China. Voaremos de Shanghai (PVG) para Beijing (AMS) a bordo do Airbus A320-200. Nosso voo, tem um duração prevista de 2 horas e 25 minutos.
<!--more-->

No aeroporto de Shanghai (Pudong International Airport), o céu está parcialmente nublado e a temperatura de 22<sup>o</sup>C. No aeroporto de Beijing (Capital International Airport), o céu está claro, com um pouco de neblina. A temperatura é de 17<sup>o</sup>C.

## Flight General Information
{% highlight markdown %}
Flight ID      : 164
Flight Number  : CA1884
Flight Co.     : Air China Limited
Aircraft Model : Airbus A320neo
Departure      : ZSPD/PVG Shanghai, China (+7 UTC)
Arrival        : ZBAA/PEK Beijing, China (+7 UTC)
{% endhighlight %}

## Flight Schedule
{% highlight markdown %}
Dep. Scheduled : 12:15      Dep. Time : 12:24
Arr. Scheduled : 14:40      Arr. Time : 14:39

Flight Time    :   2:15
Acc. Flt. Time : 424:35
{% endhighlight %}

## Flight Weight
{% highlight markdown %}
PAX            :     162 people
Cargo          :     900 lbs
Fuel Loaded    :  20.800 lbs
Takeoff Weight : 148.700 lbs
{% endhighlight %}

## Flight Route
{% highlight markdown %}
Flight Level   : FL360
Flt Distance   : 818 NM
Route          : ZSPD/17L SAS11D SASAN W161 VMB A593 PIMOL W593 SJD W592 NIXEM A593
                 VYK VYK7B ZBAA/19
{% endhighlight %}

## Weather Information
{% highlight markdown %}
ZSPD/PVG  PUDONG
   ZSPD 200500Z 04006MPS 360V080 9999 SCT040 22/11 Q1023

ZBAA/PEK  BEIJING CAPITAL
   ZBAA 200500Z 14003MPS 100V160 3700 HZ NSC 17/07 Q1020
{% endhighlight %}

<figure align="center">
   <img src="/assets/164a.webp">
</figure>
<figure align="center">
   <img src="/assets/164b.webp" alt="flight simulator, fsx, flight, airbus, A320neo, shanghai, beijing, china">
</figure>
