---
layout: post
title: "Dublin - London"
author: "Marcelo"
comments: true
tags: flight-simulator
excerpt_separator: <!--more-->
---
Welcome onboard of flight BA827 operated by British Airways. This flight is from Dublin (DUB) to London (LHR) using the Airbus A320NEO. It is expected a flight time around 1 hour.
<!--more-->

In Dublin Airport, the sky is clear with few clouds and the temperatue is 10<sup>o</sup>C. In London at Heathrow Airport, the sky is overcast, the temperature is around 8<sup>o</sup>C.

<center><iframe width="560" height="315" src="https://www.youtube.com/embed/Fq9sVKVedA0" title="YouTube video player" frameborder="0" allow="accelerometer; autoplay; clipboard-write; encrypted-media; gyroscope; picture-in-picture" allowfullscreen></iframe></center>

<a href="https://www.youtube.com/channel/UCpdi061inx5SWgFFJgOWrWA?sub_confirmation=1" title="Subscribe to my YT Channel" target="_blank"> <img src="/assets/YTSubs.webp" width="140" height=""/>
</a>

## Flight General Information
{% highlight markdown %}
Flight ID      : 311
Flight Number  : BA827
Flight Co.     : British Airways
Aircraft Model : Airbus A320NEO
Departure      : EIDW/DUB Dublin, Ireland (+1 UTC)
Arrival        : EGLL/LHR London, United Kingdom (+1 UTC)
{% endhighlight %}

## Flight Schedule
{% highlight markdown %}
Dep. Scheduled : 15:30      Dep. Time : 15:39
Arr. Scheduled : 16:30      Arr. Time : 16:38

Flight Time    :   0:59
Acc. Flt. Time : 819:51
{% endhighlight %}

## Flight Weight
{% highlight markdown %}
PAX            :     244 people
Cargo          :   1.000 lbs
Fuel Loaded    :  12.200 lbs
Takeoff Weight : 137.600 lbs
{% endhighlight %}

## Flight Route
{% highlight markdown %}
Flight Level   : FL STEPS EIDW/0290
Flt Distance   : 274 NM
Route          : EIDW/28 DEXEN1A DEXEN DCT VYL DCT WD2 DCT BNN DCT EGLL/09L

{% endhighlight %}

## Weather Information
{% highlight markdown %}
EIDW/DUB  DUBLIN INTL
  EIDW 031700Z 11005KT 060V190 9999 FEW020 10/03 Q1034

EGLL/LHR  HEATHROW
  EGLL 031650Z AUTO 04006KT 350V070 9999 OVC034 08/01 Q1031
{% endhighlight %}

<figure align="center">
   <img src="/assets/311a.webp">
</figure>

<figure align="center">
   <img src="/assets/311b.webp" alt="flight simulator, msfs2020, fs2020, flight, london, dublin, ireland, airbus, a330, , british airlines, united kingdom">
</figure>
