---
layout: post
title: "Columbus - Minneapolis"
author: "Marcelo"
comments: true
tags: flight-simulator
excerpt_separator: <!--more-->
---
Bem vindos a bordo do voo DL5011 da Delta Airlines. Voaremos de Columbus (CMH) para Minneapolis (MSP) a bordo do Airbus Airbus A320neo. Nosso voo, tem um duração prevista de 1 hora e 40 minutos. O embarque está aberto.
<!--more-->

No aeroporto de Columbus (John Glenn International Airport), o céu está claro e a temperatura é de 18<sup>o</sup>C. No aeroporto de Minneapolis (Saint Paul International Airport), o céu está encoberto, com neblina e a temperatura é de 2<sup>o</sup>C.

Durante o final da aproximação, o A320neo sofreu uma rajada forte de vento lateral, causando uma aterrissagem forte, com certeza os passageiros reclamaram.

## Flight General Information
{% highlight markdown %}
Flight ID      : 293
Flight Number  : DL5011
Flight Co.     : Delta Airlines
Aircraft Model : Airbus Airbus A320neo
Departure      : KCMH/CMH Columbus, United States (-5 UTC)
Arrival        : KMSP/MSP Minneapolis, United States (-6 UTC)
{% endhighlight %}

## Flight Schedule
{% highlight markdown %}
Dep. Scheduled : 12:45      Dep. Time : 13:05
Arr. Scheduled : 13:25      Arr. Time : 13:45

Flight Time    :   1:40
Acc. Flt. Time : 773:39
{% endhighlight %}

## Flight Weight
{% highlight markdown %}
PAX            :     165 people
Cargo          :     800 lbs
Fuel Loaded    :  17.300 lbs
Takeoff Weight : 145.800 lbs
{% endhighlight %}

## Flight Route
{% highlight markdown %}
Flight Level   : FL STEPS KJFK/0320/
Flt Distance   : 580 NM
Route          : KJFK/13R DCT RBV J230 AIR DCT FRICC DCT BREMN BREMN5 KCMH/28L
{% endhighlight %}

## Weather Information
{% highlight markdown %}
KCMH/CMH GLENN COLUMBUS INTL
   KCMH 162251Z 14010KT 10SM CLR 18/06 A2993

KMSP/MSP MINNEAPOLIS-ST PAUL INTL/WOLD-
   KMSP 171953Z 05016KT 4SM BR OVC005 02/00 A2994
{% endhighlight %}

<figure align="center">
   <img src="/assets/293a.webp">
</figure>

<figure align="center">
   <img src="/assets/293b.webp">
</figure>
