---
layout: post
title: "Minneapolis - Las Vegas"
author: "Marcelo"
comments: true
tags: flight-simulator 
excerpt_separator: <!--more-->
---
Bem vindos a bordo do voo DL1182 da Delta Airlines. Voaremos de Minneapolis (MSP) para Las Vegas (LAS) a bordo do Airbus A320neo. Nosso voo, tem um duração prevista de 3 horas. O check in está aberto.
<!--more-->

No aeroporto de Minneapolis (Saint Paul International Airport), o céu está claro e a temperatura é de 9<sup>o</sup>C. No aeroporto de Las Vegas (McCarran International Airport), o céu está encoberto, com neblina e a temperatura é de 27<sup>o</sup>C.

## Flight General Information
{% highlight markdown %}
Flight ID      : 294
Flight Number  : DL1182
Flight Co.     : Delta Airlines
Aircraft Model : Airbus A320neo
Departure      : KMSP/MSP Minneapolis, United States (-6 UTC)
Arrival        : KLAS/LAS Las Vegas, United States (-7 UTC)
{% endhighlight %}

## Flight Schedule
{% highlight markdown %}
Dep. Scheduled : 09:00      Dep. Time : 09:16
Arr. Scheduled : 11:00      Arr. Time : 11:18

Flight Time    :   3:02
Acc. Flt. Time : 776:41
{% endhighlight %}

## Flight Weight
{% highlight markdown %}
PAX            :     158 people
Cargo          :       0 lbs
Fuel Loaded    :  24.200 lbs
Takeoff Weight : 150.300 lbs
{% endhighlight %}

## Flight Route
{% highlight markdown %}
Flight Level   : FL STEPS KMSP/0320/
Flt Distance   : 1.294 NM
Route          : KMSP/22 LEINY6 LEINY DCT PIR DCT MBW DCT MTU DCT GGAPP SITEE4 KLAS/26R
{% endhighlight %}

## Weather Information
{% highlight markdown %}
KMSP/MSP MINNEAPOLIS-ST PAUL INTL/WOLD-
   KMSP 201653Z 17013KT 10SM CLR 09/M03 A3030

KLAS/LAS  MC CARRAN INTL
   KLAS 192156Z 23006G16KT 10SM FEW090 BKN250 27/02 A2998
{% endhighlight %}

<figure align="center">
   <img src="/assets/294a.webp">
</figure>

<figure align="center">
   <img src="/assets/294b.webp" alt="flight simulator, msfs2020, fs2020, flight, airbus, a320neo, las vegas, minneapolis, united states, delta airlines">
</figure>
