---
layout: post
title: "New York - Dublin"
author: "Marcelo"
comments: true
tags: flight-simulator
excerpt_separator: <!--more-->
---
Bem vindos a bordo do voo DL144 da Delta Airlines. Voaremos de New York (JFK) para Dublin (DUB) a bordo do Airbus A330-200. Nosso voo, tem um duração prevista de 6 horas e 35 minutos.
<!--more-->

No aeroporto de New York (John F. Kennedy International Airport), o céu está nublado, a temperatura é de 7<sup>o</sup>C. No aeroporto de Dublin (Dublin Airport), o céu está claro sem nuvens e a temperatura é de 6<sup>o</sup>C.

<center><iframe width="560" height="315" src="https://www.youtube.com/embed/_euDhRt9-kw" title="YouTube video player" frameborder="0" allow="accelerometer; autoplay; clipboard-write; encrypted-media; gyroscope; picture-in-picture" allowfullscreen></iframe></center>

<a href="https://www.youtube.com/channel/UCpdi061inx5SWgFFJgOWrWA?sub_confirmation=1" title="Me siga no YouTube" target="_blank"> <img src="/assets/YTSubs.webp" width="140" height=""/>
</a>

## Flight General Information
{% highlight markdown %}
Flight ID      : 310
Flight Number  : DL1952
Flight Co.     : Delta Airlines
Aircraft Model : Airbus A330-200
Departure      : KJFK/JFK New York, United States (-4 UTC)
Arrival        : EIDW/DUB Dublin, Ireland (0 UTC)
{% endhighlight %}

## Flight Schedule
{% highlight markdown %}
Dep. Scheduled : 06:00      Dep. Time : 06:13
Arr. Scheduled : 16:35      Arr. Time : 16:59

Flight Time    :   6:46
Acc. Flt. Time : 818:52
{% endhighlight %}

## Flight Weight
{% highlight markdown %}
PAX            :     244 people
Cargo          :   2.900 lbs
Fuel Loaded    :  84.800 lbs
Takeoff Weight : 412.300 lbs
{% endhighlight %}

## Flight Route
{% highlight markdown %}
Flight Level   : FL STEPS KJFK/0390/NUMPI/0240
Flt Distance   : 3.013 NM
Route          : KJFK/22R GREKI6 GREKI DCT JUDDS DCT TAFFY DCT PORGY DCT CUDDY DCT
                 59N050W 60N040W 60N030W 59N020W DCT GOMUP DCT GINGA DCT BEL DCT
                 NUMPI P620 NIMAT NIMAT1Z EIDW/10

{% endhighlight %}

## Weather Information
{% highlight markdown %}
KJFK/JFK  KENNEDY INTL
  KJFK 012251Z 32023G29KT 10SM BKN060 BKN085 07/M07 A2992

EIDW/DUB  DUBLIN INTL
  EIDW 012300Z 06011KT CAVOK 06/05 Q1030 NOSIG
{% endhighlight %}

<figure align="center">
   <img src="/assets/310a.webp">
</figure>

<figure align="center">
   <img src="/assets/310b.webp" alt="flight simulator, msfs2020, fs2020, flight, new york, dublin, united states, airbus, a330, , deltaairlines, ireland">
</figure>
