---
layout: post
title: "Atlanta - Jacksonville"
author: "Marcelo"
comments: true
tags: flight-simulator
excerpt_separator: <!--more-->
---
Bem vindos a bordo do voo DL2850 da Delta Airlines. Voaremos de Atlanta (ATL) para a Jacksonville (JAX) a bordo do Airbus A320-200. Nosso voo, tem um duração prevista de 45 minutos. O check in já foi aberto.
<!--more-->

No aeroporto de Atlanta (Hartsfield–Jackson International Airport), o céu está parcialmente nublado e a temperatura é de 14<sup>o</sup>C. No aeroporto de Jacksonville (Jacksonville International Airport), o céu está encoberto, com neblina e a temperatura é de 14<sup>o</sup>C.

## Flight General Information
{% highlight markdown %}
Flight ID      : 298
Flight Number  : DL2850
Flight Co.     : Delta Airlines
Aircraft Model : Airbus A320-200
Departure      : KATL/ATL Atlanta, United States (-4 UTC)
Arrival        : KJAX/JAX Jacksonville, United States (-4 UTC)
{% endhighlight %}

## Flight Schedule
{% highlight markdown %}
Dep. Scheduled : 19:30      Dep. Time : 19:39
Arr. Scheduled : 20:15      Arr. Time : 20:26

Flight Time    :   0:47
Acc. Flt. Time : 785:05
{% endhighlight %}

## Flight Weight
{% highlight markdown %}
PAX            :     162 people
Cargo          :     600 lbs
Fuel Loaded    :  11.700 lbs
Takeoff Weight : 139.300 lbs
{% endhighlight %}

## Flight Route
{% highlight markdown %}
Flight Level   : FL STEPS KATL/0240/
Flt Distance   : 228 NM
Route          : KATL/09L VRSTY2 MCN DCT DUCHY OHDEA1 KJAX/14
{% endhighlight %}

## Weather Information
{% highlight markdown %}
KATL/ATL  HARTSFIELD - JACKSON ATLANTA I
   KATL 220052Z 06010KT 10SM SCT050 SCT060 14/07 A3026

KJAX/JAX  JACKSONVILLE INTL
   KJAX 220119Z 01013G26KT 6SM BR OVC015 14/12 A3007
{% endhighlight %}

<figure align="center">
   <img src="/assets/298a.webp">
</figure>

<figure align="center">
   <img src="/assets/298b.webp">
</figure>
