---
layout: post
title: "Orlando - Punta Cana"
author: "Marcelo"
comments: true
tags: flight-simulator
excerpt_separator: <!--more-->
---
Bem vindos a bordo do voo AA1314 da American Airlines. Voaremos de Orlando (MCO) para Punta Cana (PUJ) a bordo do Airbus A320NEO. Nosso voo, tem um duração prevista de 2 horas e 30 minutos.
<!--more-->

No aeroporto de Orlando (Orlando International Airport), o céu está claro com poucas nuvens, a temperatura é de 26<sup>o</sup>C. No aeroporto de Punta Cana (Punta Cana International Airport), o céu estava claro com pouquíssimas nuvens, a temperatura é de 29<sup>o</sup>C.

<center><iframe width="560" height="315" src="https://www.youtube.com/embed/M_H4caLBmhE" title="YouTube video player" frameborder="0" allow="accelerometer; autoplay; clipboard-write; encrypted-media; gyroscope; picture-in-picture" allowfullscreen></iframe></center>

<a href="https://www.youtube.com/channel/UCpdi061inx5SWgFFJgOWrWA?sub_confirmation=1" title="Me siga no YouTube" target="_blank"> <img src="/assets/YTSubs.webp" width="140" height=""/>
</a>

## Flight General Information
{% highlight markdown %}
Flight ID      : 307
Flight Number  : AA1314
Flight Co.     : American Airlines
Aircraft Model : Airbus A320NEO
Departure      : KMCO/MCO Orlando, United States (-5 UTC)
Arrival        : MDCP/PUJ Punta Cana, Dominican Republic (-4 UTC)
{% endhighlight %}

## Flight Schedule
{% highlight markdown %}
Dep. Scheduled : 13:30      Dep. Time : 13:29
Arr. Scheduled : 17:00      Arr. Time : 16:59

Flight Time    :   2:30
Acc. Flt. Time : 808:02
{% endhighlight %}

## Flight Weight
{% highlight markdown %}
PAX            :     155 people
Cargo          :   1.000 lbs
Fuel Loaded    :  18.800 lbs
Takeoff Weight : 145.200 lbs
{% endhighlight %}

## Flight Route
{% highlight markdown %}
Flight Level   : FL STEPS KMCO/0370/
Flt Distance   : 870 NM
Route          : KMCO/36R DCT ATLAS DCT JOLTS BR1L BENIE DCT CHASO Y306 HAGIT DCT
                 POKEG MDPC/09

{% endhighlight %}

## Weather Information
{% highlight markdown %}
KMCO/MCO  ORLANDO INTL
  KMCO 292153Z 06009KT 10SM FEW037 26/18 A3010

MDPC/PUJ  PUNTA CANA INTL
  MDPC 292200Z 09014KT CAVOK 27/22 Q1016
{% endhighlight %}

<figure align="center">
   <img src="/assets/307a.webp">
</figure>

<figure align="center">
   <img src="/assets/307b.webp" alt="flight simulator, msfs2020, fs2020, flight, orlando, punta cana, united states, airbus, a320, a320neo, american airlines, dominican republic">
</figure>
