---
layout: post
title: "Salt Lake City - Dallas"
author: "Marcelo"
comments: true
tags: flight-simulator
excerpt_separator: <!--more-->
---
Bem vindos a bordo do voo DL1021 da Delta Airlines. Voaremos de Salt Lake City (SLC) para Dallas (DFW) a bordo do Airbus A320neo. Nosso voo, tem um duração prevista de 2 horas e 15 minutos.
<!--more-->

No aeroporto de Salt Lake City (Salt Lake City International Airport), o céu está parcialmente nublado e a temperatura é de 8<sup>o</sup>C. No aeroporto de Dallas (Fort Worth International Airport), o céu está claro e sem nuvens. A temperatura é de 23<sup>o</sup>C.

<center><iframe width="560" height="315" src="https://www.youtube.com/embed/OBbbU6Wsqi0" title="YouTube video player" frameborder="0" allow="accelerometer; autoplay; clipboard-write; encrypted-media; gyroscope; picture-in-picture" allowfullscreen></iframe></center>


## Flight General Information
{% highlight markdown %}
Flight ID      : 302
Flight Number  : DL1021
Flight Co.     : Delta Airlines
Aircraft Model : Airbus A320neo
Departure      : KSLC/SLC Salt Lake City, United States (-6 UTC)
Arrival        : KDFW/DFW Dallas, United States (-5 UTC)
{% endhighlight %}

## Flight Schedule
{% highlight markdown %}
Dep. Scheduled : 14:00      Dep. Time : 14:09
Arr. Scheduled : 17:15      Arr. Time : 17:18

Flight Time    :   2:09
Acc. Flt. Time : 794:12
{% endhighlight %}

## Flight Weight
{% highlight markdown %}
PAX            :     161 people
Cargo          :     700 lbs
Fuel Loaded    :  19.300 lbs
Takeoff Weight : 146.800 lbs
{% endhighlight %}

## Flight Route
{% highlight markdown %}
Flight Level   : FL STEPS KSLC/0370/
Flt Distance   : 864 NM
Route          : KSLC/17 RUGGD1 MTU DCT HBU DCT PNH DCT MDANO VKTRY2 KDFW/13R

{% endhighlight %}

## Weather Information
{% highlight markdown %}
KSLC/SLC  SALT LAKE CITY INTL
   KSLC 270054Z 27010KT 10SM SCT047TCU 08/M02 A3006

KDFW/DFW  DALLAS-FT WORTH INTL
   KDFW 270050Z AUTO 15011KT 10SM CLR 23/09 A2981
{% endhighlight %}

<figure align="center">
   <img src="/assets/302a.webp">
</figure>

<figure align="center">
   <img src="/assets/302b.webp" alt="flight simulator, msfs2020, fs2020, flight, salt lake city, dallas, united states, airbus, a320, delta airlines">
</figure>
