---
layout: post
title: "Dallas - Los Angeles"
author: "Marcelo"
comments: true
tags: flight-simulator
excerpt_separator: <!--more-->
---
Bem vindos a bordo do voo DL952 da Delta Airlines. Voaremos de Dallas (DFW) para Los Angeles (LAX) a bordo do Airbus A330-200. Nosso voo, tem um duração prevista de 2 horas e 40 minutos.
<!--more-->

No aeroporto de Dallas (Fort Worth International Airport), o céu está nublado e a temperatura é de 20<sup>o</sup>C. No aeroporto de Los Angeles (Los Angeles International Airport), o céu está claro e sem nuvens. A temperatura é de 12<sup>o</sup>C.

<center><iframe width="560" height="315" src="https://www.youtube.com/embed/vBXmXeAJ_fU" title="YouTube video player" frameborder="0" allow="accelerometer; autoplay; clipboard-write; encrypted-media; gyroscope; picture-in-picture" allowfullscreen></iframe></center>


## Flight General Information
{% highlight markdown %}
Flight ID      : 303
Flight Number  : DL952
Flight Co.     : Delta Airlines
Aircraft Model : Airbus A330-200
Departure      : KDFW/DFW Dallas, United States (-5 UTC)
Arrival        : KLAX/LAX Los Angeles, United States (-8 UTC)
{% endhighlight %}

## Flight Schedule
{% highlight markdown %}
Dep. Scheduled : 10:00      Dep. Time : 10:11
Arr. Scheduled : 09:45      Arr. Time : 09:59

Flight Time    :   2:48
Acc. Flt. Time : 797:00
{% endhighlight %}

## Flight Weight
{% highlight markdown %}
PAX            :     268 people
Cargo          :   2.600 lbs
Fuel Loaded    :  43.100 lbs
Takeoff Weight : 375.800 lbs
{% endhighlight %}

## Flight Route
{% highlight markdown %}
Flight Level   : FL STEPS KDFW/0340/
Flt Distance   : 1.105 NM
Route          : KDFW/35L HRPER3 HULZE DCT TXO J72 ABQ J78 DRK DCT GABBL HLYWD1
                 KLAX/25R

{% endhighlight %}

## Weather Information
{% highlight markdown %}
KDFW/DFW  DALLAS-FT WORTH INTL
   KDFW 271455Z AUTO 19011KT 8SM BKN027 20/17 A2988

KLAX/LAX LOS ANGELES INTL
   KLAX 271453Z 35003KT 10SM CLR 12/06 A3021
{% endhighlight %}

<figure align="center">
   <img src="/assets/303a.webp">
</figure>

<figure align="center">
   <img src="/assets/303b.webp" alt="flight simulator, msfs2020, fs2020, flight, dallas, los angeles, united states, airbus, a330, a330-200, delta airlines">
</figure>
