---
layout: post
title: "Santo Domingo - New York"
author: "Marcelo"
comments: true
tags: flight-simulator
excerpt_separator: <!--more-->
---
Bem vindos a bordo do voo DL1952 da Delta Airlines. Voaremos de Santo Domingo (SDQ) para New York (JFK) a bordo do Airbus A320NEO. Nosso voo, tem um duração prevista de 3 horas e 30 minutos.
<!--more-->

No aeroporto de Santo Domingo (Las Américas International Airport), o céu está predominantemente nublado, a temperatura é de 30<sup>o</sup>C. No aeroporto de New York (John F. Kennedy International Airport), o céu está nublado e a temperatura é de 12<sup>o</sup>C.

<center><iframe width="560" height="315" src="https://www.youtube.com/embed/-KWPkAkRBc8" title="YouTube video player" frameborder="0" allow="accelerometer; autoplay; clipboard-write; encrypted-media; gyroscope; picture-in-picture" allowfullscreen></iframe></center>

<a href="https://www.youtube.com/channel/UCpdi061inx5SWgFFJgOWrWA?sub_confirmation=1" title="Me siga no YouTube" target="_blank"> <img src="/assets/YTSubs.webp" width="140" height=""/>
</a>

## Flight General Information
{% highlight markdown %}
Flight ID      : 309
Flight Number  : DL1952
Flight Co.     : Delta Airlines
Aircraft Model : Airbus A320NEO
Departure      : MDSD/SDQ Santo Domingo, Dominican Republic (-4 UTC)
Arrival        : KJFK/JFK New York, United States (-4 UTC)
{% endhighlight %}

## Flight Schedule
{% highlight markdown %}
Dep. Scheduled : 12:20      Dep. Time : 12:35
Arr. Scheduled : 15:50      Arr. Time : 16:09

Flight Time    :   3:34
Acc. Flt. Time : 812:06
{% endhighlight %}

## Flight Weight
{% highlight markdown %}
PAX            :     165 people
Cargo          :       0 lbs
Fuel Loaded    :  27.800 lbs
Takeoff Weight : 135.500 lbs
{% endhighlight %}

## Flight Route
{% highlight markdown %}
Flight Level   : FL STEPS MDSD/0330/LETON/0340/JAINS/0350
Flt Distance   : 1.551 NM
Route          : MDSD/35 LERED2L LERED DCT LETON L451 JAINS DCT CLOWR DCT SAGGY DCT
                 DIW DCT WETRO DCT CEBEE DCT SWL J121 SIE CAMRN4 KJFK/13L

{% endhighlight %}

## Weather Information
{% highlight markdown %}
MDSD/SDQ LAS AMERICAS INTL
  MDSD 312100Z 08008KT 9999 FEW018CB SCT020 30/24 Q1013

KJFK/JFK  KENNEDY INTL
  KJFK 312100Z 19015KT 2SM -RA BR FEW015 BKN024 OVC039 12/10 A2999
{% endhighlight %}

<figure align="center">
   <img src="/assets/309a.webp">
</figure>

<figure align="center">
   <img src="/assets/309b.webp" alt="flight simulator, msfs2020, fs2020, flight, new york, santo domingo, united states, airbus, a320, a320neo, delta airlines, dominican republic">
</figure>
