---
layout: post
title: "St. Louis - Salt Lake City"
author: "Marcelo"
comments: true
tags: flight-simulator
excerpt_separator: <!--more-->
---
Bem vindos a bordo do voo DL2402 da Delta Airlines. Voaremos de  St. Louis (STL) para Salt Lake City (SLC) a bordo do Airbus A320-200. Nosso voo, tem um duração prevista de 3 horas e 15 minutos. O embarque já foi iniciado.
<!--more-->

No aeroporto de St. Louis (Lambert International Airport), o céu está encoberto, com chuva e nevoeiro, a temperatura é de 11<sup>o</sup>C. No aeroporto de Salt Lake City (Salt Lake City International Airport), o céu está nublado e a temperatura é de 11<sup>o</sup>C.

<center><iframe width="560" height="315" src="https://www.youtube.com/embed/OBbbU6Wsqi0" title="YouTube video player" frameborder="0" allow="accelerometer; autoplay; clipboard-write; encrypted-media; gyroscope; picture-in-picture" allowfullscreen></iframe></center>


Bug bizarro: Em algum momento durante a aproximação do aeroporto de Salt Lake City, em fila com outras aeronaves, recebo a mensagem "clear to land". Achei estranho pois haviam outras aeronaves na minha frente na final da pista 34R. A visibilidade era muito baixa e do nada, meu A320 literalmente passou por dentro de um Boeing 737, parado no céu. Bugs, bugs, e bugs... <a href="https://youtu.be/OBbbU6Wsqi0?t=11278">Ainda bem que foi bug</a>.

## Flight General Information
{% highlight markdown %}
Flight ID      : 301
Flight Number  : DL2402
Flight Co.     : Delta Airlines
Aircraft Model : Airbus A320-200
Departure      : KSTL/STL St. Louis, United States (-5 UTC)
Arrival        : KSLC/SLC Salt Lake City, United States (-6 UTC)
{% endhighlight %}

## Flight Schedule
{% highlight markdown %}
Dep. Scheduled : 15:00      Dep. Time : 15:19
Arr. Scheduled : 17:15      Arr. Time : 17:34

Flight Time    :   3:10
Acc. Flt. Time : 792:03
{% endhighlight %}

## Flight Weight
{% highlight markdown %}
PAX            :     160 people
Cargo          :     700 lbs
Fuel Loaded    :  20.300 lbs
Takeoff Weight : 147.600 lbs
{% endhighlight %}

## Flight Route
{% highlight markdown %}
Flight Level   : FL STEPS KSTL/0360/
Flt Distance   : 1.120 NM
Route          : KSTL/30L BRAKK5 HLV DCT MCI J80 FQF J116 EKR LEEHY5 KSLC/34R

{% endhighlight %}

## Weather Information
{% highlight markdown %}
KSTL/STL ST LOUIS LAMBERT INTL
   KSTL 252302Z 30011KT 3SM RA BR OVC006 11/09 A2962

KSLC/SLC  SALT LAKE CITY INTL
   KSLC 251754Z 18009KT 10SM FEW035 BKN055 OVC080 08/M06 A2961
{% endhighlight %}

<figure align="center">
   <img src="/assets/301a.webp">
</figure>

<figure align="center">
   <img src="/assets/301b.webp" alt="flight simulator, msfs2020, fs2020, flight, salt lake city, st. louis, united states, airbus, a320, united airlines">
</figure>
