---
layout: post
title: "Chicago - San Francisco"
author: "Marcelo"
comments: true
tags: flight-simulator
excerpt_separator: <!--more-->
---
Bem vindos a bordo do voo AA2907 da American Airlines. Voaremos de Chicago (ORD) para San Francisco (SFO) a bordo do Airbus A320neo. Nosso voo, tem um duração prevista de 4 horas e 45 minutos. Apertem o cinto.
<!--more-->

No aeroporto de Chicago (O'Hare International Airport) o céu está claro com poucas nuvens, a temperatura é de 0<sup>o</sup>C. No aeroporto de San Franciso (San Francisco International Airport), o céu está nublado e a temperatura é de 11<sup>o</sup>C.


## Flight General Information
{% highlight markdown %}
Flight ID      : 288
Flight Number  : AA2907
Flight Co.     : American Airlines
Aircraft Model : Airbus A320neo
Departure      : KORD/ORD Chicago, United States (-6 UTC)
Arrival        : KSFO/SFO San Francisco, United States (-8 UTC)
{% endhighlight %}

## Flight Schedule
{% highlight markdown %}
Dep. Scheduled : 08:00      Dep. Time : 08:24
Arr. Scheduled : 10:45      Arr. Time : 11:09

Flight Time    :   4:45
Acc. Flt. Time : 762:44
{% endhighlight %}

## Flight Weight
{% highlight markdown %}
PAX            :     148 people
Cargo          :     900 lbs
Fuel Loaded    :  29.700 lbs
Takeoff Weight : 154.400 lbs
{% endhighlight %}

## Flight Route
{% highlight markdown %}
Flight Level   : FL STEPS KORD/0360/LOOLO/0380
Flt Distance   : 1.831 NM
Route          : KORD/28R DCT MYKIE DCT MONNY DCT JORDY DCT ONL J148 CYS DCT EKR DCT
                 LOOLO DCT DTA DCT RUMPS DCT OAL DCT INYOE MOD8 KSFO/19L
{% endhighlight %}

## Weather Information
{% highlight markdown %}
KORD/ORD -O'HARE INTL
   KORD 131251Z 00000KT 10SM SCT250 00/M02 A3047

KSFO/SFO SAN FRANCISCO INTL
   KSFO 131251Z 27012KT 10SM FEW010 BKN015 11/06 A3026
{% endhighlight %}

<figure align="center">
   <img src="/assets/288a.webp">
</figure>

<figure align="center">
   <img src="/assets/288b.webp" alt="flight simulator, msfs2020, fs2020, flight, airbus, a320, san francisco, chicago, united states, united airlines">
</figure>
