---
layout: post
title: "Jacksonville - Washington"
author: "Marcelo"
comments: true
tags: flight-simulator
excerpt_separator: <!--more-->
---
Bem vindos a bordo do voo UA555 da United Airlines. Voaremos de Jacksonville (JAX) para a Washington (IAD) a bordo do Airbus A320neo. Nosso voo, tem um duração prevista de 1 hora e 45 minutos. O check in já foi aberto.
<!--more-->

No aeroporto de Jacksonville (Jacksonville International Airport), o céu está nublado e a temperatura é de 16<sup>o</sup>C. No aeroporto de Washington (Dulles International Airport), o céu está nublado e a temperatura é de 17<sup>o</sup>C.

## Flight General Information
{% highlight markdown %}
Flight ID      : 299
Flight Number  : UA555
Flight Co.     : United Airlines
Aircraft Model : Airbus A320neo
Departure      : KJAX/JAX Jacksonville, United States (-4 UTC)
Arrival        : KIAD/IAD Washington, United States (-4 UTC)
{% endhighlight %}

## Flight Schedule
{% highlight markdown %}
Dep. Scheduled : 09:30      Dep. Time : 09:41
Arr. Scheduled : 11:15      Arr. Time : 11:20

Flight Time    :   1:39
Acc. Flt. Time : 786:44
{% endhighlight %}

## Flight Weight
{% highlight markdown %}
PAX            :     159 people
Cargo          :     800 lbs
Fuel Loaded    :  15.600 lbs
Takeoff Weight : 142.700 lbs
{% endhighlight %}

## Flight Route
{% highlight markdown %}
Flight Level   : FL STEPS KJAX/0350/
Flt Distance   : 551 NM
Route          : KJAX/08 CROSB2 WISPR DCT JROSS DCT FLO J207 RDU DCT BZNGA DCT DORRN
                 WIGOL1 KIAD/01R
{% endhighlight %}

## Weather Information
{% highlight markdown %}
KJAX/JAX  JACKSONVILLE INTL
   KJAX 232356Z 09007KT 10SM BKN200 16/13 A2998

KIAD/IAD  WASHINGTON DULLES INTL
   KIAD 232352Z 11007KT 10SM BKN055 17/07 A3016
{% endhighlight %}

<figure align="center">
   <img src="/assets/299a.webp">
</figure>

<figure align="center">
   <img src="/assets/299b.webp" alt="flight simulator, msfs2020, fs2020, flight, washington, jacksonville, united states, airbus, a320, united airlines">
</figure>
