---
layout: post
title: "Washington - St. Louis"
author: "Marcelo"
comments: true
tags: flight-simulator
excerpt_separator: <!--more-->
---
Bem vindos a bordo do voo UA4290 da United Airlines. Voaremos de Washington (IAD) para St. Louis (STL) a bordo do Airbus A320-200. Nosso voo, tem um duração prevista de 2 horas.
<!--more-->

No aeroporto de Washington (Dulles International Airport), o céu está encoberto e a temperatura é de 14<sup>o</sup>C. No aeroporto de St. Louis (Lambert International Airport), o céu está nublado e a temperatura é de 17<sup>o</sup>C.

<center><iframe width="560" height="315" src="https://www.youtube.com/embed/UW3Q8qqXnEI" title="YouTube video player" frameborder="0" allow="accelerometer; autoplay; clipboard-write; encrypted-media; gyroscope; picture-in-picture" allowfullscreen></iframe></center>

## Flight General Information
{% highlight markdown %}
Flight ID      : 300
Flight Number  : UA4290
Flight Co.     : United Airlines
Aircraft Model : Airbus A320-200
Departure      : KIAD/IAD Washington, United States (-4 UTC)
Arrival        : KSTL/STL St. Louis, United States (-5 UTC)
{% endhighlight %}

## Flight Schedule
{% highlight markdown %}
Dep. Scheduled : 14:30      Dep. Time : 14:41
Arr. Scheduled : 15:30      Arr. Time : 15:50

Flight Time    :   2:09
Acc. Flt. Time : 788:53
{% endhighlight %}

## Flight Weight
{% highlight markdown %}
PAX            :     160 people
Cargo          :     600 lbs
Fuel Loaded    :  19.500 lbs
Takeoff Weight : 146.600 lbs
{% endhighlight %}

## Flight Route
{% highlight markdown %}
Flight Level   : FL STEPS KIAD/0320/
Flt Distance   : 774 NM
Route          : KIAD/01R RNLDI4 OTTTO DCT RAMAY Q72 HACKS J149 EMPTY J110 VHP VLA9
                 KSTL/24

{% endhighlight %}

## Weather Information
{% highlight markdown %}
KIAD/IAD  WASHINGTON DULLES INTL
   KIAD 242252Z 00000KT 7SM BKN007 OVC019 14/13 A2995

KSTL/STL ST LOUIS LAMBERT INTL
   KSTL 242251Z 28012KT 10SM FEW034 BKN250 17/06 A2985
{% endhighlight %}

<figure align="center">
   <img src="/assets/300a.webp">
</figure>

<figure align="center">
   <img src="/assets/300b.webp" alt="flight simulator, msfs2020, fs2020, flight, washington, st.louis, united states, airbus, a320, united airlines">
</figure>
