---
layout: post
title: "New Orleans - Detroit"
author: "Marcelo"
comments: true
tags: flight-simulator
excerpt_separator: <!--more-->
---
Bem vindos a bordo do voo DL2052 da Delta Airlines. Voaremos de New Orleans (MSY) para Detroit (DTW) a bordo do Airbus A320-200. Nosso voo, tem um duração prevista de 2 horas e 30 minutos.
<!--more-->

No aeroporto de New Orleans (Louis Armstrong International Airport), o céu está encoberto com discargas elétricas, a temperatura é de 26<sup>o</sup>C. No aeroporto de Detroit (Metropolitan Wayne County Airport), o céu está nublado, a temperatura é de 10<sup>o</sup>C.

<center><iframe width="560" height="315" src="https://www.youtube.com/embed/wRYgJGRqwVI" title="YouTube video player" frameborder="0" allow="accelerometer; autoplay; clipboard-write; encrypted-media; gyroscope; picture-in-picture" allowfullscreen></iframe></center>


## Flight General Information
{% highlight markdown %}
Flight ID      : 305
Flight Number  : DL2052
Flight Co.     : Delta Airlines
Aircraft Model : Airbus A320-200
Departure      : KMSY/MSY New Orleans, United States (-6 UTC)
Arrival        : KDTW/DTW Detroit, United States (-5 UTC)
{% endhighlight %}

## Flight Schedule
{% highlight markdown %}
Dep. Scheduled : 10:45      Dep. Time : 10:53
Arr. Scheduled : 14:15      Arr. Time : 14:24

Flight Time    :   2:33
Acc. Flt. Time : 802:56
{% endhighlight %}

## Flight Weight
{% highlight markdown %}
PAX            :     164 people
Cargo          :     900 lbs
Fuel Loaded    :  18.800 lbs
Takeoff Weight : 147.200 lbs
{% endhighlight %}

## Flight Route
{% highlight markdown %}
Flight Level   : FL STEPS KMSY/0330/
Flt Distance   : 733 NM
Route          : KMSY/29 DCT KUSTE DCT TURTL DCT NUDLE DCT SQS J35 MEM J29 PXV DCT
                 WWODD LECTR2 KDTW/27R

{% endhighlight %}

## Weather Information
{% highlight markdown %}
KMSY/MSY ARMSTRONG NEW ORLEANS INTL
  KMSY 281453Z 25008KT 10SM SCT018 BKN050 OVC065 26/21 A3005

KDTW/DTW DETROIT METRO WAYNE CO
  KDTW 281453Z 30016G23KT 10SM BKN023 BKN030 10/06 A2958
{% endhighlight %}

<figure align="center">
   <img src="/assets/305a.webp">
</figure>

<figure align="center">
   <img src="/assets/305b.webp" alt="flight simulator, msfs2020, fs2020, flight, new orleans, detroit, united states, airbus, a320, a320-200, delta airlines">
</figure>
