---
layout: post
title: "Punta Cana - Santo Domingo"
author: "Marcelo"
comments: true
tags: flight-simulator
excerpt_separator: <!--more-->
---
Bem vindos a bordo do voo CM109 da Copa Airlines. Voaremos de Punta Cana (PUJ) a Santo Domingo (SDQ) a bordo do Airbus A320NEO. Nosso voo, tem um duração prevista de 30 minutos.
<!--more-->

No aeroporto de Punta Cana (Punta Cana International Airport), o céu está claro sem nuvens, a temperatura é de 26<sup>o</sup>C. No aeroporto de Santo Domingo (Las Américas International Airport), o céu está claro com pouquíssimas nuvens, a temperatura é de 29<sup>o</sup>C.

<center><iframe width="560" height="315" src="https://www.youtube.com/embed/qWV66f5VXYY" title="YouTube video player" frameborder="0" allow="accelerometer; autoplay; clipboard-write; encrypted-media; gyroscope; picture-in-picture" allowfullscreen></iframe></center>

<a href="https://www.youtube.com/channel/UCpdi061inx5SWgFFJgOWrWA?sub_confirmation=1" title="Me siga no YouTube" target="_blank"> <img src="/assets/YTSubs.webp" width="140" height=""/>
</a>

## Flight General Information
{% highlight markdown %}
Flight ID      : 308
Flight Number  : CM109
Flight Co.     : Copa Airlines
Aircraft Model : Airbus A320NEO
Departure      : MDCP/PUJ Punta Cana, Dominican Republic (-4 UTC)
Arrival        : MDSD/SDQ Santo Domingo, Dominican Republic (-4 UTC)
{% endhighlight %}

## Flight Schedule
{% highlight markdown %}
Dep. Scheduled : 15:30      Dep. Time : 15:29
Arr. Scheduled : 16:00      Arr. Time : 15:59

Flight Time    :   0:30
Acc. Flt. Time : 808:32
{% endhighlight %}

## Flight Weight
{% highlight markdown %}
PAX            :     145 people
Cargo          :     500 lbs
Fuel Loaded    :   9.700 lbs
Takeoff Weight : 137.900 lbs
{% endhighlight %}

## Flight Route
{% highlight markdown %}
Flight Level   : FL STEPS MDPC/0068/
Flt Distance   : 75 NM
Route          : MDPC/27 DCT PNA DCT LRN DCT PIVAR DCT VILSA DCT KEBRO DCT MDSD/17

{% endhighlight %}

## Weather Information
{% highlight markdown %}
MDPC/PUJ PUNTA CANA INTL
  MDPC 302300Z 07012KT CAVOK 26/22 Q1017

MDSD/SDQ LAS AMERICAS INTL
  MDSD 302300Z 07008KT 9999 FEW020 29/23 Q1016
{% endhighlight %}

<figure align="center">
   <img src="/assets/308a.webp">
</figure>

<figure align="center">
   <img src="/assets/308b.webp" alt="flight simulator, msfs2020, fs2020, flight, orlando, punta cana, united states, airbus, a320, a320neo, american airlines, dominican republic">
</figure>
