---
layout: post
title: "Los Angeles - New Orleans"
author: "Marcelo"
comments: true
tags: flight-simulator
excerpt_separator: <!--more-->
---
Bem vindos a bordo do voo DL412 da Delta Airlines. Voaremos de Los Angeles (LAX) para New Orleans (MSY) a bordo do Airbus A320-200. Nosso voo, tem um duração prevista de 3 horas e 15 minutos.
<!--more-->

No aeroporto de Los Angeles (Los Angeles International Airport), o céu está claro e sem nuvens, a temperatura é de 19<sup>o</sup>C. No aeroporto de New Orleans (Louis Armstrong International Airport), o céu está claro e sem nuvens, a temperatura é de 27<sup>o</sup>C.

<center><iframe width="560" height="315" src="https://www.youtube.com/embed/wRYgJGRqwVI" title="YouTube video player" frameborder="0" allow="accelerometer; autoplay; clipboard-write; encrypted-media; gyroscope; picture-in-picture" allowfullscreen></iframe></center>


## Flight General Information
{% highlight markdown %}
Flight ID      : 304
Flight Number  : DL412
Flight Co.     : Delta Airlines
Aircraft Model : Airbus A320-200
Departure      : KLAX/LAX Los Angeles, United States (-8 UTC)
Arrival        : KMSY/MSY New Orleans, United States (-6 UTC)
{% endhighlight %}

## Flight Schedule
{% highlight markdown %}
Dep. Scheduled : 20:00      Dep. Time : 20:16
Arr. Scheduled : 01:20      Arr. Time : 01:39

Flight Time    :   3:23
Acc. Flt. Time : 800:20
{% endhighlight %}

## Flight Weight
{% highlight markdown %}
PAX            :     148 people
Cargo          :   1.100 lbs
Fuel Loaded    :  23.800 lbs
Takeoff Weight : 148.700 lbs
{% endhighlight %}

## Flight Route
{% highlight markdown %}
Flight Level   : FL STEPS KLAX/0330/
Flt Distance   : 1.358 NM
Route          : KLAX/25R DOTSS2 DOTSS DCT WIILD DCT BLCKD DCT CSTWY DCT CNERY DCT
                 BLH DCT JAROZ DCT SODSE DCT VICKO DCT BXK DCT SATRN DCT FORUR DCT
                 HYMAN DCT CLL DCT HIPPS DCT EAKES DCT CREPO AWDAD1 KMSY/20

{% endhighlight %}

## Weather Information
{% highlight markdown %}
KLAX/LAX LOS ANGELES INTL
  KLAX 272253Z 25011KT 10SM CLR 19/08 A3019

KMSY/MSY ARMSTRONG NEW ORLEANS INTL
  KMSY 272253Z 19014G20KT 10SM CLR 27/21 A2998
{% endhighlight %}

<figure align="center">
   <img src="/assets/304a.webp">
</figure>

<figure align="center">
   <img src="/assets/304b.webp" alt="flight simulator, msfs2020, fs2020, flight, new orleans, los angeles, united states, airbus, a320, a320-200, delta airlines">
</figure>
