---
layout: post
title: "Detroit - Orlando"
author: "Marcelo"
comments: true
tags: flight-simulator
excerpt_separator: <!--more-->
---
Bem vindos a bordo do voo DL2117 da Delta Airlines. Voaremos de Detroit (DTW) para Orlando (MCO) a bordo do Airbus A320NEO. Nosso voo, tem um duração prevista de 2 horas e 30 minutos.
<!--more-->

No aeroporto de Detroit (Metropolitan Wayne County Airport), o céu está encoberto com chuva e um pouco de neblina, a temperatura é de 6<sup>o</sup>C. No aeroporto de Orlando (Orlando International Airport), o céu estava claro com pouquíssimas nuvens, a temperatura é de 29<sup>o</sup>C.

<center><iframe width="560" height="315" src="https://www.youtube.com/embed/pQ_DDTrJoic" title="YouTube video player" frameborder="0" allow="accelerometer; autoplay; clipboard-write; encrypted-media; gyroscope; picture-in-picture" allowfullscreen></iframe></center>


## Flight General Information
{% highlight markdown %}
Flight ID      : 306
Flight Number  : DL2117
Flight Co.     : Delta Airlines
Aircraft Model : Airbus A320NEO
Departure      : KDTW/DTW Detroit, United States (-5 UTC)
Arrival        : KMCO/MCO Orlando, United States (-5 UTC)
{% endhighlight %}

## Flight Schedule
{% highlight markdown %}
Dep. Scheduled : 19:00      Dep. Time : 19:06
Arr. Scheduled : 21:30      Arr. Time : 21:42

Flight Time    :   2:36
Acc. Flt. Time : 805:32
{% endhighlight %}

## Flight Weight
{% highlight markdown %}
PAX            :     159 people
Cargo          :     800 lbs
Fuel Loaded    :  21.700 lbs
Takeoff Weight : 148.800 lbs
{% endhighlight %}

## Flight Route
{% highlight markdown %}
Flight Level   : FL STEPS KDTW/0320/
Flt Distance   : 979 NM
Route          : KDTW/22L CLVIN1 STAZE DCT VXV DCT ATL DCT YUESS DCT OTK PIGLT6
                 KMCO/35R

{% endhighlight %}

## Weather Information
{% highlight markdown %}
KDTW/DTW  DETROIT METRO WAYNE CO
  KDTW 282253Z 28021G31KT RA FG 10SM OVC035 06/M01 A2985

KMCO/MCO  ORLANDO INTL
  KMCO 282253Z 25009KT 10SM FEW065 29/15 A3003
{% endhighlight %}

<figure align="center">
   <img src="/assets/306a.webp">
</figure>

<figure align="center">
   <img src="/assets/306b.webp" alt="flight simulator, msfs2020, fs2020, flight, orlando, detroit, united states, airbus, a320, a320neo, delta airlines">
</figure>
